NORAD_CAT_ID,OBJECT_NAME,OBJECT_TYPE,EPOCH,MEAN_MOTION,ECCENTRICITY,INCLINATION,RA_OF_ASC_NODE,ARG_OF_PERICENTER,MEAN_ANOMALY,BSTAR,MEAN_MOTION_DOT,MEAN_MOTION_DDOT,TLE_LINE0,TLE_LINE1,TLE_LINE2,SEMIMAJOR_AXIS,PERIOD,APOGEE,PERIGEE,DECAYED
52569.0,STARLINK-3927,PAYLOAD,2024-04-15 23:04:15,15.08848448,0.0001466,53.2189,348.9008,100.8638,259.2519,0.00014528,2.025e-05,0.0,0 STARLINK-3927,1 52569U 22051AN  24106.96129014  .00002025  00000-0  14528-3 0  9994,2 52569  53.2189 348.9008 0001466 100.8638 259.2519 15.08848448107070,6917.855,95.437,540.734,538.705,0.0
52569.0,STARLINK-3927,PAYLOAD,2024-04-16 19:44:16,15.08848186,0.0001336,53.219,345.0378,106.0191,254.0948,4.4808e-05,4.25e-06,0.0,0 STARLINK-3927,1 52569U 22051AN  24107.82241060  .00000425  00000-0  44808-4 0  9993,2 52569  53.2190 345.0378 0001336 106.0191 254.0948 15.08848186107201,6917.855,95.437,540.645,538.796,0.0
52569.0,STARLINK-3927,PAYLOAD,2024-04-16 21:19:39,15.08847986,0.0001399,53.2181,344.7409,105.0894,255.0253,5.8675e-05,6.46e-06,0.0,0 STARLINK-3927,1 52569U 22051AN  24107.88864849  .00000646  00000-0  58675-4 0  9997,2 52569  53.2181 344.7409 0001399 105.0894 255.0253 15.08847986107140,6917.856,95.437,540.689,538.753,0.0
52569.0,STARLINK-3927,PAYLOAD,2024-04-17 00:30:25,15.08856714,0.0001408,53.2188,344.1437,99.8979,260.2173,0.00019993,2.897e-05,0.0,0 STARLINK-3927,1 52569U 22051AN  24108.02112384  .00002897  00000-0  19993-3 0  9993,2 52569  53.2188 344.1437 0001408  99.8979 260.2173 15.08856714107235,6917.829,95.436,540.668,538.72,0.0
52569.0,STARLINK-3927,PAYLOAD,2024-04-17 19:35:05,15.0881798,0.000138,53.2172,340.5764,107.175,252.9393,-0.00026056,-4.43e-05,0.0,0 STARLINK-3927,1 52569U 22051AN  24108.81603055 -.00004430  00000-0 -26056-3 0  9995,2 52569  53.2172 340.5764 0001380 107.1750 252.9393 15.08817980107357,6917.948,95.439,540.767,538.858,0.0
52569.0,STARLINK-3927,PAYLOAD,2024-04-17 21:10:28,15.08818232,0.0001567,53.2174,340.2794,92.077,268.0402,-0.00024005,-4.104e-05,0.0,0 STARLINK-3927,1 52569U 22051AN  24108.88227244 -.00004104  00000-0 -24005-3 0  9994,2 52569  53.2174 340.2794 0001567  92.0770 268.0402 15.08818232107293,6917.947,95.439,540.896,538.728,0.0
52569.0,STARLINK-3927,PAYLOAD,2024-04-18 00:21:14,15.08821077,0.0001654,53.2173,339.6846,94.6356,265.4825,-0.00017716,-3.105e-05,0.0,0 STARLINK-3927,1 52569U 22051AN  24109.01475278 -.00003105  00000-0 -17716-3 0  9993,2 52569  53.2173 339.6846 0001654  94.6356 265.4825 15.08821077107311,6917.938,95.439,540.947,538.659,0.0
52569.0,STARLINK-3927,PAYLOAD,2024-04-18 21:01:14,15.08843786,0.0001646,53.2176,335.8169,68.078,292.0387,5.5587e-05,5.97e-06,0.0,0 STARLINK-3927,1 52569U 22051AN  24109.87586269  .00000597  00000-0  55587-4 0  9999,2 52569  53.2176 335.8169 0001646  68.0780 292.0387 15.08843786107519,6917.869,95.437,540.872,538.595,0.0
52569.0,STARLINK-3927,PAYLOAD,2024-04-18 22:36:36,15.08859496,0.0001294,53.2174,335.5189,94.7327,265.3813,0.00028785,4.299e-05,0.0,0 STARLINK-3927,1 52569U 22051AN  24109.94209426  .00004299  00000-0  28785-3 0  9996,2 52569  53.2174 335.5189 0001294  94.7327 265.3813 15.08859496107453,6917.821,95.436,540.581,538.791,0.0
52569.0,STARLINK-3927,PAYLOAD,2024-04-19 00:11:59,15.08860731,0.0001367,53.2179,335.2206,104.8044,255.31,0.00034526,5.214e-05,0.0,0 STARLINK-3927,1 52569U 22051AN  24110.00833292  .00005214  00000-0  34526-3 0  9997,2 52569  53.2179 335.2206 0001367 104.8044 255.3100 15.08860731107536,6917.817,95.436,540.628,538.736,0.0
52569.0,STARLINK-3927,PAYLOAD,2024-04-19 14:30:29,15.08840517,0.000144,53.2176,332.5444,121.5107,238.6026,0.00024525,3.617e-05,0.0,0 STARLINK-3927,1 52569U 22051AN  24110.60450821  .00003617  00000-0  24525-3 0  9999,2 52569  53.2176 332.5444 0001440 121.5107 238.6026 15.08840517107558,6917.879,95.438,540.74,538.748,0.0
52569.0,STARLINK-3927,PAYLOAD,2024-04-19 20:52:01,15.08848787,0.0001599,53.2173,331.3578,109.0993,251.0172,0.00032605,4.906e-05,0.0,0 STARLINK-3927,1 52569U 22051AN  24110.86946409  .00004906  00000-0  32605-3 0  9999,2 52569  53.2173 331.3578 0001599 109.0993 251.0172 15.08848787107669,6917.854,95.437,540.825,538.612,0.0
52569.0,STARLINK-3927,PAYLOAD,2024-04-19 22:27:23,15.0886656,0.0001434,53.2185,331.0544,122.9172,237.1958,0.00055111,8.5e-05,0.0,0 STARLINK-3927,1 52569U 22051AN  24110.93569427  .00008500  00000-0  55111-3 0  9999,2 52569  53.2185 331.0544 0001434 122.9172 237.1958 15.08866560107603,6917.799,95.436,540.656,538.672,0.0
52569.0,STARLINK-3927,PAYLOAD,2024-04-20 14:21:15,15.08849861,0.0001585,53.2179,328.0843,100.7784,259.3387,-0.00014354,-2.572e-05,0.0,0 STARLINK-3927,1 52569U 22051AN  24111.59810020 -.00002572  00000-0 -14354-3 0  9999,2 52569  53.2179 328.0843 0001585 100.7784 259.3387 15.08849861107702,6917.85,95.437,540.812,538.619,0.0
52569.0,STARLINK-3927,PAYLOAD,2024-04-20 20:42:48,15.08848099,0.0001562,53.2181,326.8938,105.2419,254.8746,-0.00011938,-2.188e-05,0.0,0 STARLINK-3927,1 52569U 22051AN  24111.86305976 -.00002188  00000-0 -11938-3 0  9996,2 52569  53.2181 326.8938 0001562 105.2419 254.8746 15.08848099107819,6917.856,95.437,540.801,538.64,0.0
52569.0,STARLINK-3927,PAYLOAD,2024-04-21 20:33:35,15.08843665,0.0001743,53.219,322.4346,100.661,259.4578,-5.5554e-06,-3.77e-06,0.0,0 STARLINK-3927,1 52569U 22051AN  24112.85666465 -.00000377  00000-0 -55554-5 0  9991,2 52569  53.2190 322.4346 0001743 100.6610 259.4578 15.08843665107961,6917.869,95.437,540.94,538.528,0.0
52569.0,STARLINK-3927,PAYLOAD,2024-04-21 23:44:21,15.08848358,0.0001453,53.2182,321.8351,92.3328,267.7831,-1.3236e-05,-4.99e-06,0.0,0 STARLINK-3927,1 52569U 22051AN  24112.98914017 -.00000499  00000-0 -13236-4 0  9999,2 52569  53.2182 321.8351 0001453  92.3328 267.7831 15.08848358107915,6917.855,95.437,540.725,538.715,0.0
52569.0,STARLINK-3927,PAYLOAD,2024-04-22 18:48:59,15.08839284,0.0001664,53.2186,318.2643,115.8077,244.3087,6.2164e-05,7.01e-06,0.0,0 STARLINK-3927,1 52569U 22051AN  24113.78402681  .00000701  00000-0  62164-4 0  9995,2 52569  53.2186 318.2643 0001664 115.8077 244.3087 15.08839284108103,6917.883,95.438,540.899,538.596,0.0
52569.0,STARLINK-3927,PAYLOAD,2024-04-22 23:35:09,15.08840301,0.0001699,53.2188,317.3722,118.0597,242.0568,6.6909e-05,7.77e-06,0.0,0 STARLINK-3927,1 52569U 22051AN  24113.98274610  .00000777  00000-0  66909-4 0  9990,2 52569  53.2188 317.3722 0001699 118.0597 242.0568 15.08840301108069,6917.879,95.438,540.92,538.569,0.0
52569.0,STARLINK-3927,PAYLOAD,2024-04-23 20:15:10,15.08823131,0.0001357,53.2187,313.5053,108.2339,251.8801,-0.00025656,-4.367e-05,0.0,0 STARLINK-3927,1 52569U 22051AN  24114.84386863 -.00004367  00000-0 -25656-3 0  9994,2 52569  53.2187 313.5053 0001357 108.2339 251.8801 15.08823131108261,6917.932,95.439,540.736,538.858,0.0
52569.0,STARLINK-3927,PAYLOAD,2024-04-23 23:25:56,15.0881959,0.0001351,53.2184,312.9114,96.2278,263.8868,-0.00030701,-5.168e-05,0.0,0 STARLINK-3927,1 52569U 22051AN  24114.97635173 -.00005168  00000-0 -30701-3 0  9996,2 52569  53.2184 312.9114 0001351  96.2278 263.8868 15.08819590108216,6917.943,95.439,540.742,538.873,0.0
52569.0,STARLINK-3927,PAYLOAD,2024-04-24 20:05:57,15.08846137,0.0001201,53.2178,309.0507,94.1215,265.9914,0.00010192,1.335e-05,0.0,0 STARLINK-3927,1 52569U 22051AN  24115.83746704  .00001335  00000-0  10192-3 0  9997,2 52569  53.2178 309.0507 0001201  94.1215 265.9914 15.08846137108418,6917.862,95.437,540.557,538.896,0.0
52569.0,STARLINK-3927,PAYLOAD,2024-04-25 19:56:44,15.08831853,0.0001301,53.2196,304.5883,79.1388,280.975,0.00028284,4.215e-05,0.0,0 STARLINK-3927,1 52569U 22051AN  24116.83107512  .00004215  00000-0  28284-3 0  9997,2 52569  53.2196 304.5883 0001301  79.1388 280.9750 15.08831853108560,6917.905,95.438,540.67,538.87,0.0
52569.0,STARLINK-3927,PAYLOAD,2024-04-25 21:32:07,15.08838528,0.0001401,53.2186,304.2896,88.3901,271.7252,0.00039149,5.948e-05,0.0,0 STARLINK-3927,1 52569U 22051AN  24116.89731439  .00005948  00000-0  39149-3 0  9990,2 52569  53.2186 304.2896 0001401  88.3901 271.7252 15.08838528108509,6917.885,95.438,540.719,538.781,0.0
52569.0,STARLINK-3927,PAYLOAD,2024-04-26 16:36:45,15.08840252,0.0001563,53.2185,300.7213,92.2778,267.8393,6.6943e-05,7.78e-06,0.0,0 STARLINK-3927,1 52569U 22051AN  24117.69219530  .00000778  00000-0  66943-4 0  9991,2 52569  53.2185 300.7213 0001563  92.2778 267.8393 15.08840252108629,6917.88,95.438,540.826,538.663,0.0
52569.0,STARLINK-3927,PAYLOAD,2024-04-27 05:19:50,15.08843123,0.0001396,53.2179,298.3426,103.746,256.3688,0.00011451,1.535e-05,0.0,0 STARLINK-3927,1 52569U 22051AN  24118.22211206  .00001535  00000-0  11451-3 0  9998,2 52569  53.2179 298.3426 0001396 103.7460 256.3688 15.08843123108776,6917.871,95.437,540.702,538.77,0.0
52569.0,STARLINK-3927,PAYLOAD,2024-04-27 21:13:41,15.0885445,0.0001343,53.2175,295.3694,105.956,254.158,8.1262e-05,1.006e-05,0.0,0 STARLINK-3927,1 52569U 22051AN  24118.88450415  .00001006  00000-0  81262-4 0  9998,2 52569  53.2175 295.3694 0001343 105.9560 254.1580 15.08854450108809,6917.836,95.437,540.63,538.772,0.0
52569.0,STARLINK-3927,PAYLOAD,2024-04-28 05:10:37,15.08834919,0.0001537,53.2171,293.8871,86.9231,273.1937,-0.00011313,-2.088e-05,0.0,0 STARLINK-3927,1 52569U 22051AN  24119.21571582 -.00002088  00000-0 -11313-3 0  9997,2 52569  53.2171 293.8871 0001537  86.9231 273.1937 15.08834919108921,6917.896,95.438,540.824,538.698,0.0
52569.0,STARLINK-3927,PAYLOAD,2024-04-28 17:53:43,15.0883818,0.0001363,53.2174,291.5073,98.1709,261.9438,-0.00013027,-2.36e-05,0.0,0 STARLINK-3927,1 52569U 22051AN  24119.74564308 -.00002360  00000-0 -13027-3 0  9990,2 52569  53.2174 291.5073 0001363  98.1709 261.9438 15.08838180108931,6917.886,95.438,540.694,538.808,0.0
52569.0,STARLINK-3927,PAYLOAD,2024-04-29 11:22:57,15.08836517,0.000118,53.219,288.2365,96.3396,263.7731,9.3755e-05,1.204e-05,0.0,0 STARLINK-3927,1 52569U 22051AN  24120.47427897  .00001204  00000-0  93755-4 0  9994,2 52569  53.2190 288.2365 0001180  96.3396 263.7731 15.08836517109114,6917.891,95.438,540.572,538.94,0.0
